[{"OBJECT_NAME":"ION SCV-004","OBJECT_ID":"2022-002K","EPOCH":"2026-03-09T16:32:03.244416","MEAN_MOTION":15.29369331,"ECCENTRICITY":0.00072157,"INCLINATION":97.2961,"RA_OF_ASC_NODE":128.2294,"ARG_OF_PERICENTER":1.6783,"MEAN_ANOMALY":358.448,"EPHEMERIS_TYPE":0,"CLASSIFICATION_TYPE":"U","NORAD_CAT_ID":50993,"ELEMENT_SET_NO":999,"REV_AT_EPOCH":23008,"BSTAR":0.00023198467,"MEAN_MOTION_DOT":6.538e-5,"MEAN_MOTION_DDOT":0},{"OBJECT_NAME":"STARLINK-36085","OBJECT_ID":"2025-294F","EPOCH":"2026-03-09T22:34:48.742752","MEAN_MOTION":15.27594472,"ECCENTRICITY":0.00014126,"INCLINATION":43.0019,"RA_OF_ASC_NODE":36.9951,"ARG_OF_PERICENTER":245.2775,"MEAN_ANOMALY":114.793,"EPHEMERIS_TYPE":0,"CLASSIFICATION_TYPE":"U","NORAD_CAT_ID":67035,"ELEMENT_SET_NO":999,"REV_AT_EPOCH":1483,"BSTAR":0.0015273275,"MEAN_MOTION_DOT":0.00042025,"MEAN_MOTION_DDOT":0}]
